NORAD_CAT_ID,OBJECT_NAME,OBJECT_TYPE,EPOCH,MEAN_MOTION,ECCENTRICITY,INCLINATION,RA_OF_ASC_NODE,ARG_OF_PERICENTER,MEAN_ANOMALY,BSTAR,MEAN_MOTION_DOT,MEAN_MOTION_DDOT,TLE_LINE0,TLE_LINE1,TLE_LINE2,SEMIMAJOR_AXIS,PERIOD,APOGEE,PERIGEE,DECAYED
51717.0,STARLINK-3445,PAYLOAD,2022-07-09 16:00:00,15.0885296,0.0001888,53.2176,220.2386,43.012,155.1647,-0.0037515,-0.00059522,0.0,0 STARLINK-3445,1 51717U 22016D   22190.66667824 -.00059522  00000-0 -37515-2 0  9999,2 51717  53.2176 220.2386 0001888  43.0120 155.1647 15.08852960 22417,6917.840999999999,95.437,541.012,538.4,0.0
51717.0,STARLINK-3445,PAYLOAD,2022-07-09 20:00:01,15.08817599,0.000175,53.218,219.4895,45.7088,338.2711,-0.0009241,-0.00014956,0.0,0 STARLINK-3445,1 51717U 22016D   22190.83334491 -.00014956  00000-0 -92410-3 0  9997,2 51717  53.2180 219.4895 0001750  45.7088 338.2711 15.08817599  1307,6917.949000000001,95.439,541.025,538.6030000000002,0.0
51717.0,STARLINK-3445,PAYLOAD,2022-07-10 06:00:00,15.08830133,0.0001817,53.2179,217.6199,45.7574,82.6714,-0.0018733,-0.0002997,0.0,0 STARLINK-3445,1 51717U 22016D   22191.25001157 -.00029970  00000-0 -18733-2 0  9991,2 51717  53.2179 217.6199 0001817  45.7574  82.6714 15.08830133 22503,6917.911,95.438,541.033,538.519,0.0
51717.0,STARLINK-3445,PAYLOAD,2022-07-10 14:00:01,15.08808672,0.0001928,53.2174,216.1243,41.2559,98.7443,0.0014024,0.00022083,0.0,0 STARLINK-3445,1 51717U 22016D   22191.58334491  .00022083  00000-0  14024-2 0  9992,2 51717  53.2174 216.1243 0001928  41.2559  98.7443 15.08808672  1304,6917.976,95.44,541.175,538.507,0.0
51717.0,STARLINK-3445,PAYLOAD,2022-07-10 22:00:00,15.087987,0.0001714,53.2175,214.6264,46.7248,104.8498,0.0023995,0.00038064,0.0,0 STARLINK-3445,1 51717U 22016D   22191.91667824  .00038064  00000-0  23995-2 0  9991,2 51717  53.2175 214.6264 0001714  46.7248 104.8498 15.08798700 22604,6918.007,95.44,541.057,538.686,0.0
51717.0,STARLINK-3445,PAYLOAD,2022-07-11 14:00:01,15.08839298,0.0001861,53.2169,211.6355,40.2327,134.4762,0.0014275,0.00022503,0.0,0 STARLINK-3445,1 51717U 22016D   22192.58334491  .00022503  00000-0  14275-2 0  9998,2 51717  53.2169 211.6355 0001861  40.2327 134.4762 15.08839298  1300,6917.8830000000025,95.438,541.035,538.46,0.0
51717.0,STARLINK-3445,PAYLOAD,2022-07-11 22:00:00,15.08831331,0.0001643,53.2169,210.1375,45.4197,140.9012,0.0023856,0.00037874,0.0,0 STARLINK-3445,1 51717U 22016D   22192.91667824  .00037874  00000-0  23856-2 0  9996,2 51717  53.2169 210.1375 0001643  45.4197 140.9012 15.08831331 22758,6917.906999999997,95.438,540.908,538.635,0.0
51717.0,STARLINK-3445,PAYLOAD,2022-07-12 14:00:01,15.08859426,0.0001856,53.2162,207.1464,41.6262,167.9111,7.5608e-05,9.16e-06,0.0,0 STARLINK-3445,1 51717U 22016D   22193.58334491  .00000916  00000-0  75608-4 0  9992,2 51717  53.2162 207.1464 0001856  41.6262 167.9111 15.08859426 22858,6917.821,95.436,540.97,538.4019999999998,0.0
51717.0,STARLINK-3445,PAYLOAD,2022-07-12 22:00:00,15.08839125,0.0001685,53.2161,205.6484,47.7323,173.4305,0.0024991,0.00039709,0.0,0 STARLINK-3445,1 51717U 22016D   22193.91667824  .00039709  00000-0  24991-2 0  9997,2 51717  53.2161 205.6484 0001685  47.7323 173.4305 15.08839125  1305,6917.8830000000025,95.438,540.914,538.582,0.0
51717.0,STARLINK-3445,PAYLOAD,2022-07-13 14:00:01,15.08864781,0.0001829,53.2157,202.6571,41.2166,203.1808,-0.002564,-0.00040891,0.0,0 STARLINK-3445,1 51717U 22016D   22194.58334491 -.00040891  00000-0 -25640-2 0  9990,2 51717  53.2157 202.6571 0001829  41.2166 203.1808 15.08864781  1303,6917.805,95.436,540.935,538.404,0.0
51717.0,STARLINK-3445,PAYLOAD,2022-07-13 16:00:00,15.08862644,0.0001784,53.2158,202.2824,42.1172,295.1841,-0.0030859,-0.00049097,0.0,0 STARLINK-3445,1 51717U 22016D   22194.66667824 -.00049097  00000-0 -30859-2 0  9993,2 51717  53.2158 202.2824 0001784  42.1172 295.1841 15.08862644 23014,6917.811,95.436,540.91,538.442,0.0
51717.0,STARLINK-3445,PAYLOAD,2022-07-13 22:00:00,15.088170300000002,0.000167,53.2157,201.159,46.3915,209.6176,0.0024878,0.00039503,0.0,0 STARLINK-3445,1 51717U 22016D   22194.91667824  .00039503  00000-0  24878-2 0  9994,2 51717  53.2157 201.1590 0001670  46.3915 209.6176 15.08817030  1304,6917.951,95.439,540.971,538.66,0.0
51717.0,STARLINK-3445,PAYLOAD,2022-07-14 08:00:01,15.08839124,0.0001904,53.216,199.2905,43.3051,317.1951,7.3385e-05,8.8e-06,0.0,0 STARLINK-3445,1 51717U 22016D   22195.33334491  .00000880  00000-0  73385-4 0  9997,2 51717  53.2160 199.2905 0001904  43.3051 317.1951 15.08839124 23110,6917.8830000000025,95.438,541.065,538.431,0.0
51717.0,STARLINK-3445,PAYLOAD,2022-07-14 14:00:01,15.08853282,0.0001879,53.2158,198.1678,41.1797,238.0088,-0.0012161,-0.00019598,0.0,0 STARLINK-3445,1 51717U 22016D   22195.58334491 -.00019598  00000-0 -12161-2 0  9995,2 51717  53.2158 198.1678 0001879  41.1797 238.0088 15.08853282  1306,6917.84,95.437,541.005,538.405,0.0
51717.0,STARLINK-3445,PAYLOAD,2022-07-14 22:00:00,15.08827213,0.0001746,53.216,196.6697,47.0095,243.7869,0.0020029,0.00031721,0.0,0 STARLINK-3445,1 51717U 22016D   22195.91667824  .00031721  00000-0  20029-2 0  9993,2 51717  53.2160 196.6697 0001746  47.0095 243.7869 15.08827213  1307,6917.919,95.438,540.992,538.577,0.0
51717.0,STARLINK-3445,PAYLOAD,2022-07-15 14:00:01,15.08837695,0.00019,53.2164,193.6785,39.4985,274.4751,-0.0015611,-0.00025046,0.0,0 STARLINK-3445,1 51717U 22016D   22196.58334491 -.00025046  00000-0 -15611-2 0  9994,2 51717  53.2164 193.6785 0001900  39.4985 274.4751 15.08837695 23301,6917.887,95.438,541.067,538.438,0.0
51717.0,STARLINK-3445,PAYLOAD,2022-07-15 22:00:00,15.08808993,0.0001792,53.2168,192.1806,45.9559,279.6071,0.0027548,0.0004379,0.0,0 STARLINK-3445,1 51717U 22016D   22196.91667824  .00043790  00000-0  27548-2 0  9996,2 51717  53.2168 192.1806 0001792  45.9559 279.6071 15.08808993  1308,6917.975,95.44,541.08,538.6,0.0
51717.0,STARLINK-3445,PAYLOAD,2022-07-16 06:00:00,15.08837693,0.0002,53.217,190.6859,42.8826,294.2583,-0.00088307,-0.00014314,0.0,0 STARLINK-3445,1 51717U 22016D   22197.25001157 -.00014314  00000-0 -88307-3 0  9998,2 51717  53.2170 190.6859 0002000  42.8826 294.2583 15.08837693 23403,6917.887,95.438,541.136,538.369,0.0
51717.0,STARLINK-3445,PAYLOAD,2022-07-16 14:00:01,15.08852907,0.0001998,53.2172,189.1893,41.1238,307.5992,-0.0017219,-0.00027598,0.0,0 STARLINK-3445,1 51717U 22016D   22197.58334491 -.00027598  00000-0 -17219-2 0  9995,2 51717  53.2172 189.1893 0001998  41.1238 307.5992 15.08852907  1302,6917.840999999999,95.437,541.0880000000002,538.3240000000002,0.0
51717.0,STARLINK-3445,PAYLOAD,2022-07-16 22:00:00,15.08825329,0.0001882,53.2177,187.6916,47.508,312.8193,0.0026676,0.00042406,0.0,0 STARLINK-3445,1 51717U 22016D   22197.91667824  .00042406  00000-0  26676-2 0  9991,2 51717  53.2177 187.6916 0001882  47.5080 312.8193 15.08825329 23509,6917.925,95.438,541.092,538.488,0.0
51717.0,STARLINK-3445,PAYLOAD,2022-07-17 14:00:01,15.08881077,0.000202,53.2179,184.7002,42.0499,341.4734,-0.0045147,-0.00071509,0.0,0 STARLINK-3445,1 51717U 22016D   22198.58334491 -.00071509  00000-0 -45147-2 0  9998,2 51717  53.2179 184.7002 0002020  42.0499 341.4734 15.08881077 23617,6917.755,95.435,541.0169999999998,538.222,0.0
51717.0,STARLINK-3445,PAYLOAD,2022-07-17 22:00:00,15.0881409,0.0001848,53.2182,183.2026,47.0951,348.0457,0.0023288,0.00036943,0.0,0 STARLINK-3445,1 51717U 22016D   22198.91667824  .00036943  00000-0  23288-2 0  9997,2 51717  53.2182 183.2026 0001848  47.0951 348.0457 15.08814090  1304,6917.96,95.439,541.1030000000002,538.5459999999998,0.0
51717.0,STARLINK-3445,PAYLOAD,2022-07-18 06:00:00,15.08837001,0.000204,53.2183,181.7083,43.3129,3.4114,-0.0005352,-8.795e-05,0.0,0 STARLINK-3445,1 51717U 22016D   22199.25001157 -.00008795  00000-0 -53520-3 0  9995,2 51717  53.2183 181.7083 0002040  43.3129   3.4114 15.08837001 23710,6917.89,95.438,541.1659999999998,538.3430000000002,0.0
51717.0,STARLINK-3445,PAYLOAD,2022-07-18 14:00:01,15.08853964,0.000199,53.2181,180.2113,42.9932,15.3131,-0.0019413,-0.00031064,0.0,0 STARLINK-3445,1 51717U 22016D   22199.58334491 -.00031064  00000-0 -19413-2 0  9998,2 51717  53.2181 180.2113 0001990  42.9932  15.3131 15.08853964  1304,6917.8380000000025,95.437,541.0790000000002,538.326,0.0
51717.0,STARLINK-3445,PAYLOAD,2022-07-18 22:00:00,15.08832181,0.0001867,53.2184,178.7141,49.0839,20.8216,0.0019576,0.00030998,0.0,0 STARLINK-3445,1 51717U 22016D   22199.91667824  .00030998  00000-0  19576-2 0  9997,2 51717  53.2184 178.7141 0001867  49.0839  20.8216 15.08832181  1300,6917.904,95.438,541.061,538.4780000000002,0.0
51717.0,STARLINK-3445,PAYLOAD,2022-07-19 06:00:00,15.08847509,0.0002046,53.2183,177.2197,44.7774,36.7302,-0.0002455,-4.194e-05,0.0,0 STARLINK-3445,1 51717U 22016D   22200.25001157 -.00004194  00000-0 -24550-3 0  9998,2 51717  53.2183 177.2197 0002046  44.7774  36.7302 15.08847509 23861,6917.857,95.437,541.138,538.307,0.0
51717.0,STARLINK-3445,PAYLOAD,2022-07-19 14:00:01,15.08877216,0.0001936,53.2179,175.7225,44.2661,48.8441,-0.0046291,-0.00073287,0.0,0 STARLINK-3445,1 51717U 22016D   22200.58334491 -.00073287  00000-0 -46291-2 0  9998,2 51717  53.2179 175.7225 0001936  44.2661  48.8441 15.08877216  1309,6917.767,95.435,540.971,538.2919999999998,0.0
51717.0,STARLINK-3445,PAYLOAD,2022-07-19 22:00:00,15.0887294,0.0001804,53.2176,174.2168,47.4566,57.2479,-0.0073593999999999,-0.00115644,0.0,0 STARLINK-3445,1 51717U 22016D   22200.91667824 -.00115644  00000-0 -73594-2 0  9994,2 51717  53.2176 174.2168 0001804  47.4566  57.2479 15.08872940  1303,6917.78,95.435,540.893,538.3969999999998,0.0
51717.0,STARLINK-3445,PAYLOAD,2022-07-20 14:00:01,15.08880034,0.0001851999999999,53.2173,171.2337,44.9467,82.97,-0.0044463,-0.00070438,0.0,0 STARLINK-3445,1 51717U 22016D   22201.58334491 -.00070438  00000-0 -44463-2 0  9993,2 51717  53.2173 171.2337 0001852  44.9467  82.9700 15.08880034 24063,6917.7580000000025,95.435,540.904,538.342,0.0
